2026-023H               
1 67681U 26023H   26037.83153515  .00006451  00000+0  28069-3 0  9993
2 67681  96.6335 116.8614 0021555 226.9356 133.0079 15.22318667   149
2026-023J               
1 67682U 26023J   26037.83150012  .00006460  00000+0  28055-3 0  9998
2 67682  96.6412 116.8562 0021119 228.0113 131.9327 15.22391354   145
ISS OBJECT XZ           
1 67683U 98067XZ  26039.59715344  .00032870  00000+0  59125-3 0  9992
2 67683  51.6305 216.1384 0011082  92.8553 267.3704 15.49468452   277
GXIBA-1                 
1 67684U 98067YA  26039.59619447  .00056802  00000+0  99586-3 0  9996
2 67684  51.6304 216.1337 0013033  88.0048 272.2433 15.49919384   278
LEOPARD                 
1 67685U 98067YB  26039.59692941  .00037004  00000+0  66149-3 0  9999
2 67685  51.6307 216.1372 0013014  88.2498 271.9981 15.49560692   279
ISS OBJECT YC           
1 67686U 98067YC  26039.53231368  .00041281  00000+0  73612-3 0  9991
2 67686  51.6313 216.4571 0007856  65.5031 294.6776 15.49638146   262
CORAL                   
1 67687U 98067YD  26039.59702131  .00034556  00000+0  62045-3 0  9994
2 67687  51.6310 216.1383 0007957  67.3448 292.8382 15.49526264   194
ISS OBJECT YE           
1 67688U 98067YE  26039.59682245  .00039429  00000+0  70417-3 0  9994
2 67688  51.6312 216.1363 0007823  66.6258 293.5553 15.49615844   199
PRC TEST SPACECRAFT 4   
1 67689U 26024A   26039.64547411  .00009277  00000+0  18096-3 0  9993
2 67689  49.9899 160.1377 0179624 154.5769 206.4162 15.32684951   237
CZ-2F R/B               
1 67690U 26024B   26039.64517463  .00010042  00000+0  19429-3 0  9992
2 67690  49.9868 160.1378 0178096 154.4940 206.4941 15.33016351   237
CZ-2F DEB               
1 67691U 26024C   26038.40624066  .00013633  00000+0  22491-3 0  9996
2 67691  49.9467 166.3853 0113560 147.5975 213.2028 15.45551762    49
CZ-2F DEB               
1 67692U 26024D   26038.34129868  .00013282  00000+0  22598-3 0  9998
2 67692  49.9172 166.7551 0134954 145.7017 215.2750 15.42131272    39
